NORAD_CAT_ID,OBJECT_NAME,OBJECT_TYPE,EPOCH,MEAN_MOTION,ECCENTRICITY,INCLINATION,RA_OF_ASC_NODE,ARG_OF_PERICENTER,MEAN_ANOMALY,BSTAR,MEAN_MOTION_DOT,MEAN_MOTION_DDOT,TLE_LINE0,TLE_LINE1,TLE_LINE2,SEMIMAJOR_AXIS,PERIOD,APOGEE,PERIGEE,DECAYED
52866.0,STARLINK-4272,PAYLOAD,2023-04-20 07:40:03,15.08851483,0.0001237,53.2158,77.3675,94.628,265.4853,0.00017102,2.436e-05,0.0,0 STARLINK-4272,1 52866U 22062AN  23110.31948348  .00002436  00000-0  17102-3 0  9995,2 52866  53.2158  77.3675 0001237  94.6280 265.4853 15.08851483 46758,6917.845,95.437,540.566,538.855,0.0
52866.0,STARLINK-4272,PAYLOAD,2023-04-21 05:55:28,15.08838697,0.0001188,53.2158,73.2069,79.7291,280.3835,4.1029e-06,-2.23e-06,0.0,0 STARLINK-4272,1 52866U 22062AN  23111.24685187 -.00000223  00000-0  41029-5 0  9997,2 52866  53.2158  73.2069 0001188  79.7291 280.3835 15.08838697 46894,6917.884,95.438,540.571,538.928,0.0
52866.0,STARLINK-4272,PAYLOAD,2023-04-21 13:52:23,15.08837865,0.0001108,53.2162,71.7211,82.3695,277.7423,1.263e-06,-2.68e-06,0.0,0 STARLINK-4272,1 52866U 22062AN  23111.57805241 -.00000268  00000-0  12630-5 0  9993,2 52866  53.2162  71.7211 0001108  82.3695 277.7423 15.08837865 46946,6917.887,95.438,540.518,538.985,0.0
52866.0,STARLINK-4272,PAYLOAD,2023-04-22 05:46:14,15.08848969,0.0001409,53.2163,68.7454,86.5074,273.6079,7.9821e-05,9.83e-06,0.0,0 STARLINK-4272,1 52866U 22062AN  23112.24044465  .00000983  00000-0  79821-4 0  9998,2 52866  53.2163  68.7454 0001409  86.5074 273.6079 15.08848969 47538,6917.853,95.437,540.693,538.743,0.0
52866.0,STARLINK-4272,PAYLOAD,2023-04-23 05:37:02,15.08840112,0.000109,53.2172,64.2852,84.4832,275.6285,0.00011022,1.467e-05,0.0,0 STARLINK-4272,1 52866U 22062AN  23113.23405229  .00001467  00000-0  11022-3 0  9993,2 52866  53.2172  64.2852 0001090  84.4832 275.6285 15.08840112 47191,6917.88,95.438,540.499,538.991,0.0
52866.0,STARLINK-4272,PAYLOAD,2023-04-24 07:03:11,15.08856981,0.0001067,53.2174,59.5281,93.141,266.9705,0.00019137,2.761e-05,0.0,0 STARLINK-4272,1 52866U 22062AN  23114.29388065  .00002761  00000-0  19137-3 0  9991,2 52866  53.2174  59.5281 0001067  93.1410 266.9705 15.08856981 47842,6917.828,95.436,540.432,538.955,0.0
52866.0,STARLINK-4272,PAYLOAD,2023-04-25 05:18:33,15.08866612,0.000118,53.2165,55.3615,116.773,243.3383,0.00037774,5.733e-05,0.0,0 STARLINK-4272,1 52866U 22062AN  23115.22122577  .00005733  00000-0  37774-3 0  9998,2 52866  53.2165  55.3615 0001180 116.7730 243.3383 15.08866612 47494,6917.799,95.436,540.48,538.848,0.0
52866.0,STARLINK-4272,PAYLOAD,2023-04-26 01:58:37,15.08819898,9.48e-05,53.2182,51.4985,93.484,266.6261,-0.00047776,-7.879e-05,0.0,0 STARLINK-4272,1 52866U 22062AN  23116.08237508 -.00007879  00000-0 -47776-3 0  9992,2 52866  53.2182  51.4985 0000948  93.4840 266.6261 15.08819898 47626,6917.942,95.439,540.463,539.151,0.0
52866.0,STARLINK-4272,PAYLOAD,2023-04-26 21:03:15,15.08820689,9.93e-05,53.218,47.9333,83.2842,276.8264,-0.00028026,-4.743e-05,0.0,0 STARLINK-4272,1 52866U 22062AN  23116.87726822 -.00004743  00000-0 -28026-3 0  9995,2 52866  53.2180  47.9333 0000993  83.2842 276.8264 15.08820689 47749,6917.939,95.439,540.491,539.117,0.0
52866.0,STARLINK-4272,PAYLOAD,2023-04-27 01:49:25,15.0882684,0.0001247,53.2193,47.039,105.3585,254.7545,-9.5839e-05,-1.812e-05,0.0,0 STARLINK-4272,1 52866U 22062AN  23117.07598708 -.00001812  00000-0 -95839-4 0  9999,2 52866  53.2193  47.0390 0001247 105.3585 254.7545 15.08826840 48260,6917.921,95.438,540.648,538.923,0.0
52866.0,STARLINK-4272,PAYLOAD,2023-04-27 05:00:11,15.08829617,0.0001265,53.219,46.4435,106.351,253.7621,-1.5479e-05,-5.34e-06,0.0,0 STARLINK-4272,1 52866U 22062AN  23117.20846751 -.00000534  00000-0 -15479-4 0  9990,2 52866  53.2190  46.4435 0001265 106.3510 253.7621 15.08829617 47795,6917.912,95.438,540.652,538.902,0.0
52866.0,STARLINK-4272,PAYLOAD,2023-04-28 04:50:58,15.0887854,0.0001152,53.2179,41.9847,96.7666,263.3458,0.0012668,0.00019952,0.0,0 STARLINK-4272,1 52866U 22062AN  23118.20206205  .00019952  00000-0  12668-2 0  9992,2 52866  53.2179  41.9847 0001152  96.7666 263.3458 15.08878540 48434,6917.763,95.435,540.425,538.831,0.0
52866.0,STARLINK-4272,PAYLOAD,2023-04-28 19:09:26,15.08867306,0.000124,53.2181,39.3099,81.8389,278.2743,0.00048849,7.501e-05,0.0,0 STARLINK-4272,1 52866U 22062AN  23118.79821830  .00007501  00000-0  48849-3 0  9991,2 52866  53.2181  39.3099 0001240  81.8389 278.2743 15.08867306 48522,6917.797,95.436,540.52,538.804,0.0
52866.0,STARLINK-4272,PAYLOAD,2023-04-29 04:41:44,15.08867299,0.0001085,53.2182,37.5254,79.005,281.1064,0.0011581,0.00018205,0.0,0 STARLINK-4272,1 52866U 22062AN  23119.19565377  .00018205  00000-0  11581-2 0  9992,2 52866  53.2182  37.5254 0001085  79.0050 281.1064 15.08867299 48099,6917.797,95.436,540.413,538.911,0.0
52866.0,STARLINK-4272,PAYLOAD,2023-04-29 19:00:12,15.08848534,0.0001978,53.2181,34.8399,113.7778,246.3422,0.00063477,9.831e-05,0.0,0 STARLINK-4272,1 52866U 22062AN  23119.79181530  .00009831  00000-0  63477-3 0  9990,2 52866  53.2181  34.8399 0001978 113.7778 246.3422 15.08848534 48678,6917.854,95.437,541.088,538.351,0.0
52866.0,STARLINK-4272,PAYLOAD,2023-04-30 04:32:31,15.08852737,0.0001387,53.2184,33.0625,98.6458,261.4691,5.975e-05,6.63e-06,0.0,0 STARLINK-4272,1 52866U 22062AN  23120.18925045  .00000663  00000-0  59750-4 0  9996,2 52866  53.2184  33.0625 0001387  98.6458 261.4691 15.08852737 48243,6917.841,95.437,540.666,538.747,0.0
52866.0,STARLINK-4272,PAYLOAD,2023-05-01 02:47:56,15.08836212,0.0001403,53.2183,28.8973,100.7398,259.3753,-2.9192e-05,-7.52e-06,0.0,0 STARLINK-4272,1 52866U 22062AN  23121.11662069 -.00000752  00000-0 -29192-4 0  9992,2 52866  53.2183  28.8973 0001403 100.7398 259.3753 15.08836212 48871,6917.892,95.438,540.728,538.786,0.0
52866.0,STARLINK-4272,PAYLOAD,2023-05-01 21:52:33,15.08840193,0.000118,53.2178,25.3302,99.7248,260.3878,7.3548e-05,8.83e-06,0.0,0 STARLINK-4272,1 52866U 22062AN  23121.91150102  .00000883  00000-0  73548-4 0  9997,2 52866  53.2178  25.3302 0001180  99.7248 260.3878 15.08840193 48509,6917.88,95.438,540.561,538.928,0.0
52866.0,STARLINK-4272,PAYLOAD,2023-05-02 02:38:42,15.08847301,0.0001304,53.2183,24.4381,92.3758,267.7384,0.00019612,2.835e-05,0.0,0 STARLINK-4272,1 52866U 22062AN  23122.11021878  .00002835  00000-0  19612-3 0  9997,2 52866  53.2183  24.4381 0001304  92.3758 267.7384 15.08847301 49024,6917.858,95.437,540.625,538.821,0.0
52866.0,STARLINK-4272,PAYLOAD,2023-05-02 16:57:11,15.08840397,0.0001408,53.218,21.7653,81.2347,278.8805,0.00022184,3.244e-05,0.0,0 STARLINK-4272,1 52866U 22062AN  23122.70638446  .00003244  00000-0  22184-3 0  9990,2 52866  53.2180  21.7653 0001408  81.2347 278.8805 15.08840397 48623,6917.879,95.438,540.718,538.77,0.0
52866.0,STARLINK-4272,PAYLOAD,2023-05-03 02:29:30,15.08846648,0.0001216,53.2178,19.9797,85.3182,274.7949,0.00021264,3.099e-05,0.0,0 STARLINK-4272,1 52866U 22062AN  23123.10382026  .00003099  00000-0  21264-3 0  9991,2 52866  53.2178  19.9797 0001216  85.3182 274.7949 15.08846648 48682,6917.86,95.437,540.566,538.884,0.0
52866.0,STARLINK-4272,PAYLOAD,2023-05-03 21:34:07,15.08844616,0.0001323,53.2179,16.4129,85.7469,274.3674,3.4155e-05,2.56e-06,0.0,0 STARLINK-4272,1 52866U 22062AN  23123.89870180  .00000256  00000-0  34155-4 0  9996,2 52866  53.2179  16.4129 0001323  85.7469 274.3674 15.08844616 48803,6917.866,95.437,540.647,538.816,0.0
52866.0,STARLINK-4272,PAYLOAD,2023-05-04 02:20:16,15.08847789,0.0001172,53.2172,15.5193,88.6604,271.4522,8.1375e-05,1.008e-05,0.0,0 STARLINK-4272,1 52866U 22062AN  23124.09741883  .00001008  00000-0  81375-4 0  9998,2 52866  53.2172  15.5193 0001172  88.6604 271.4522 15.08847789 49324,6917.857,95.437,540.532,538.911,0.0
52866.0,STARLINK-4272,PAYLOAD,2023-05-04 10:17:12,15.08846232,0.000115,53.2165,14.0327,88.0043,272.108,5.8078e-05,6.37e-06,0.0,0 STARLINK-4272,1 52866U 22062AN  23124.42861888  .00000637  00000-0  58078-4 0  9994,2 52866  53.2165  14.0327 0001150  88.0043 272.1080 15.08846232 48885,6917.861,95.437,540.522,538.931,0.0
52866.0,STARLINK-4272,PAYLOAD,2023-05-04 21:24:54,15.08842149,0.0001362,53.2175,11.9505,93.4295,266.6853,3.9589e-05,3.42e-06,0.0,0 STARLINK-4272,1 52866U 22062AN  23124.89230279  .00000342  00000-0  39589-4 0  9998,2 52866  53.2175  11.9505 0001362  93.4295 266.6853 15.08842149 48951,6917.874,95.437,540.681,538.797,0.0
52866.0,STARLINK-4272,PAYLOAD,2023-05-04 23:00:18,15.08843793,0.0001377,53.2175,11.6529,95.1528,264.9622,6.1763e-05,6.95e-06,0.0,0 STARLINK-4272,1 52866U 22062AN  23124.95854174  .00000695  00000-0  61763-4 0  9991,2 52866  53.2175  11.6529 0001377  95.1528 264.9622 15.08843793 49455,6917.869,95.437,540.686,538.781,0.0
52866.0,STARLINK-4272,PAYLOAD,2023-05-05 21:15:42,15.08832422,0.0001428,53.2179,7.489,104.7712,255.3438,0.00019133,2.758e-05,0.0,0 STARLINK-4272,1 52866U 22062AN  23125.88590586  .00002758  00000-0  19133-3 0  9993,2 52866  53.2179   7.4890 0001428 104.7712 255.3438 15.08832422 49100,6917.904,95.438,540.756,538.781,0.0
52866.0,STARLINK-4272,PAYLOAD,2023-05-05 22:51:05,15.08842454,0.0001266,53.217,7.1928,95.8896,264.2241,6.1243e-05,6.87e-06,0.0,0 STARLINK-4272,1 52866U 22062AN  23125.95214254  .00000687  00000-0  61243-4 0  9995,2 52866  53.2170   7.1928 0001266  95.8896 264.2241 15.08842454 49111,6917.873,95.437,540.614,538.862,0.0
52866.0,STARLINK-4272,PAYLOAD,2023-05-07 01:52:38,15.08846484,0.000125,53.2176,2.1376,105.4178,254.6953,7.1415e-05,8.49e-06,0.0,0 STARLINK-4272,1 52866U 22062AN  23127.07822164  .00000849  00000-0  71415-4 0  9997,2 52866  53.2176   2.1376 0001250 105.4178 254.6953 15.08846484 49775,6917.861,95.437,540.59,538.861,0.0
52866.0,STARLINK-4272,PAYLOAD,2023-05-07 20:57:16,15.08835853,0.0001428,53.2181,358.567,122.8917,237.2213,1.6468e-05,-2.6e-07,0.0,0 STARLINK-4272,1 52866U 22062AN  23127.87311175 -.00000026  00000-0  16468-4 0  9995,2 52866  53.2181 358.5670 0001428 122.8917 237.2213 15.08835853 49894,6917.893,95.438,540.746,538.77,0.0
